NORAD_CAT_ID,OBJECT_NAME,OBJECT_TYPE,EPOCH,MEAN_MOTION,ECCENTRICITY,INCLINATION,RA_OF_ASC_NODE,ARG_OF_PERICENTER,MEAN_ANOMALY,BSTAR,MEAN_MOTION_DOT,MEAN_MOTION_DDOT,TLE_LINE0,TLE_LINE1,TLE_LINE2,SEMIMAJOR_AXIS,PERIOD,APOGEE,PERIGEE,DECAYED
52137.0,STARLINK-3733,PAYLOAD,2023-11-16 05:23:26,15.08842651,0.0001567,53.2174,260.0735,84.4385,275.6785,0.00011392,1.526e-05,0.0,0 STARLINK-3733,1 52137U 22029BB  23320.22461514  .00001526  00000-0  11392-3 0  9991,2 52137  53.2174 260.0735 0001567  84.4385 275.6785 15.08842651 93457,6917.872,95.437,540.821,538.653,0.0
52137.0,STARLINK-3733,PAYLOAD,2023-11-17 00:28:04,15.08841328,0.0001683,53.2177,256.5066,81.6088,278.5094,8.9671e-05,1.139e-05,0.0,0 STARLINK-3733,1 52137U 22029BB  23321.01949708  .00001139  00000-0  89671-4 0  9991,2 52137  53.2177 256.5066 0001683  81.6088 278.5094 15.08841328 93573,6917.876,95.437,540.906,538.577,0.0
52137.0,STARLINK-3733,PAYLOAD,2023-11-17 13:11:09,15.08836522,0.0001603,53.2192,254.1266,94.8454,265.2721,3.4177e-05,2.56e-06,0.0,0 STARLINK-3733,1 52137U 22029BB  23321.54942129  .00000256  00000-0  34177-4 0  9999,2 52137  53.2192 254.1266 0001603  94.8454 265.2721 15.08836522 93650,6917.891,95.438,540.865,538.647,0.0
52137.0,STARLINK-3733,PAYLOAD,2023-11-18 01:54:15,15.08835831,0.00017,53.2182,251.7483,83.8015,276.3171,2.131e-05,5.1e-07,0.0,0 STARLINK-3733,1 52137U 22029BB  23322.07934415  .00000051  00000-0  21310-4 0  9995,2 52137  53.2182 251.7483 0001700  83.8015 276.3171 15.08835831 93735,6917.893,95.438,540.934,538.582,0.0
52137.0,STARLINK-3733,PAYLOAD,2023-11-18 19:23:29,15.08865423,0.0001836,53.2188,248.4719,105.6274,254.4921,-0.00025063,-4.278e-05,0.0,0 STARLINK-3733,1 52137U 22029BB  23322.80797627 -.00004278  00000-0 -25063-3 0  9993,2 52137  53.2188 248.4719 0001836 105.6274 254.4921 15.08865423 93848,6917.803,95.436,540.938,538.398,0.0
52137.0,STARLINK-3733,PAYLOAD,2023-11-19 04:55:46,15.08871997,0.0001901,53.2186,246.6908,94.6876,265.4334,-0.00016615,-2.934e-05,0.0,0 STARLINK-3733,1 52137U 22029BB  23323.20540396 -.00002934  00000-0 -16615-3 0  9997,2 52137  53.2186 246.6908 0001901  94.6876 265.4334 15.08871997 93904,6917.783,95.436,540.963,538.333,0.0
52137.0,STARLINK-3733,PAYLOAD,2023-11-19 19:14:16,15.08838976,0.0001853,53.2184,244.0135,99.3202,260.8,0.00013893,1.924e-05,0.0,0 STARLINK-3733,1 52137U 22029BB  23323.80157877  .00001924  00000-0  13893-3 0  9992,2 52137  53.2184 244.0135 0001853  99.3202 260.8000 15.08838976 93995,6917.884,95.438,541.03,538.467,0.0
52137.0,STARLINK-3733,PAYLOAD,2023-11-19 22:25:02,15.08838767,0.0001644,53.2177,243.4187,105.5589,254.5584,0.00012528,1.706e-05,0.0,0 STARLINK-3733,1 52137U 22029BB  23323.93405695  .00001706  00000-0  12528-3 0  9992,2 52137  53.2177 243.4187 0001644 105.5589 254.5584 15.08838767 94012,6917.884,95.438,540.886,538.612,0.0
52137.0,STARLINK-3733,PAYLOAD,2023-11-20 11:08:07,15.08840512,0.0001497,53.2178,241.0407,104.1076,256.0083,6.1212e-05,6.86e-06,0.0,0 STARLINK-3733,1 52137U 22029BB  23324.46397673  .00000686  00000-0  61212-4 0  9998,2 52137  53.2178 241.0407 0001497 104.1076 256.0083 15.08840512 94094,6917.879,95.438,540.779,538.708,0.0
52137.0,STARLINK-3733,PAYLOAD,2023-11-20 22:15:50,15.0883795,0.000171,53.2182,238.9593,105.5457,254.5724,-6.2029e-05,-1.275e-05,0.0,0 STARLINK-3733,1 52137U 22029BB  23324.92766213 -.00001275  00000-0 -62029-4 0  9993,2 52137  53.2182 238.9593 0001710 105.5457 254.5724 15.08837950 94161,6917.887,95.438,540.935,538.569,0.0
52137.0,STARLINK-3733,PAYLOAD,2023-11-21 03:01:58,15.08844881,0.000161,53.2181,238.0704,88.1778,271.9398,-6.1524e-06,-3.86e-06,0.0,0 STARLINK-3733,1 52137U 22029BB  23325.12637660 -.00000386  00000-0 -61524-5 0  9991,2 52137  53.2181 238.0704 0001610  88.1778 271.9398 15.08844881 94190,6917.865,95.437,540.844,538.617,0.0
52137.0,STARLINK-3733,PAYLOAD,2023-11-21 10:58:54,15.08842843,0.000152,53.2176,236.5844,88.0364,272.0802,-7.331e-05,-1.455e-05,0.0,0 STARLINK-3733,1 52137U 22029BB  23325.45757950 -.00001455  00000-0 -73310-4 0  9995,2 52137  53.2176 236.5844 0001520  88.0364 272.0802 15.08842843 94246,6917.872,95.437,540.788,538.685,0.0
52137.0,STARLINK-3733,PAYLOAD,2023-11-22 01:17:23,15.08840104,0.0001571,53.2185,233.9064,93.8754,266.2417,5.0954e-05,5.23e-06,0.0,0 STARLINK-3733,1 52137U 22029BB  23326.05374062  .00000523  00000-0  50954-4 0  9993,2 52137  53.2185 233.9064 0001571  93.8754 266.2417 15.08840104 94339,6917.88,95.438,540.832,538.658,0.0
52137.0,STARLINK-3733,PAYLOAD,2023-11-23 02:43:32,15.08856617,0.000155,53.217,229.1482,97.325,262.7918,0.0002531,3.744e-05,0.0,0 STARLINK-3733,1 52137U 22029BB  23327.11356937  .00003744  00000-0  25310-3 0  9997,2 52137  53.2170 229.1482 0001550  97.3250 262.7918 15.08856617 94491,6917.83,95.437,540.767,538.622,0.0
52137.0,STARLINK-3733,PAYLOAD,2023-11-23 17:02:01,15.08833765,0.000195,53.2175,226.4771,85.6187,274.5028,-5.0807e-06,-3.69e-06,0.0,0 STARLINK-3733,1 52137U 22029BB  23327.70974474 -.00000369  00000-0 -50807-5 0  9997,2 52137  53.2175 226.4771 0001950  85.6187 274.5028 15.08833765 94582,6917.899,95.438,541.113,538.415,0.0
52137.0,STARLINK-3733,PAYLOAD,2023-11-23 21:48:11,15.08831016,0.0002172,53.2173,225.5769,132.1807,227.937,-2.0227e-05,-6.1e-06,0.0,0 STARLINK-3733,1 52137U 22029BB  23327.90846346 -.00000610  00000-0 -20227-4 0  9996,2 52137  53.2173 225.5769 0002172 132.1807 227.9370 15.08831016 94614,6917.908,95.438,541.275,538.27,0.0
52137.0,STARLINK-3733,PAYLOAD,2023-11-24 02:34:20,15.08834128,0.0001547,53.2168,224.6871,101.467,258.6496,-1.7802e-05,-5.71e-06,0.0,0 STARLINK-3733,1 52137U 22029BB  23328.10718408 -.00000571  00000-0 -17802-4 0  9997,2 52137  53.2168 224.6871 0001547 101.4670 258.6496 15.08834128 94644,6917.898,95.438,540.834,538.693,0.0
52137.0,STARLINK-3733,PAYLOAD,2023-11-24 21:38:58,15.08839146,0.0001481,53.2162,221.1192,106.9023,253.2132,0.00011454,1.535e-05,0.0,0 STARLINK-3733,1 52137U 22029BB  23328.90206683  .00001535  00000-0  11454-3 0  9997,2 52137  53.2162 221.1192 0001481 106.9023 253.2132 15.08839146 94761,6917.883,95.438,540.773,538.723,0.0
52137.0,STARLINK-3733,PAYLOAD,2023-11-24 23:14:21,15.0884075,0.0001522,53.2161,220.8222,101.4785,258.6379,0.00017118,2.437e-05,0.0,0 STARLINK-3733,1 52137U 22029BB  23328.96830714  .00002437  00000-0  17118-3 0  9996,2 52137  53.2161 220.8222 0001522 101.4785 258.6379 15.08840750 94777,6917.878,95.438,540.796,538.69,0.0
52137.0,STARLINK-3733,PAYLOAD,2023-11-25 21:29:46,15.08839898,0.0001255,53.2165,216.6556,112.3059,247.8066,0.00027739,4.13e-05,0.0,0 STARLINK-3733,1 52137U 22029BB  23329.89567254  .00004130  00000-0  27739-3 0  9997,2 52137  53.2165 216.6556 0001255 112.3059 247.8066 15.08839898 94912,6917.881,95.438,540.614,538.878,0.0
52137.0,STARLINK-3733,PAYLOAD,2023-11-26 02:15:55,15.08840758,0.0001425,53.2168,215.7631,118.216,241.8976,0.00026845,3.987e-05,0.0,0 STARLINK-3733,1 52137U 22029BB  23330.09439215  .00003987  00000-0  26845-3 0  9992,2 52137  53.2168 215.7631 0001425 118.2160 241.8976 15.08840758 94940,6917.878,95.438,540.729,538.757,0.0
52137.0,STARLINK-3733,PAYLOAD,2023-11-26 19:45:10,15.0883737,0.0001632,53.2169,212.4909,119.5338,240.5817,2.5072e-05,1.11e-06,0.0,0 STARLINK-3733,1 52137U 22029BB  23330.82303556  .00000111  00000-0  25072-4 0  9999,2 52137  53.2169 212.4909 0001632 119.5338 240.5817 15.08837370 95053,6917.888,95.438,540.882,538.624,0.0
52137.0,STARLINK-3733,PAYLOAD,2023-11-26 21:20:33,15.08839846,0.0001676,53.2175,212.1938,116.9915,243.1248,8.4531e-06,-1.54e-06,0.0,0 STARLINK-3733,1 52137U 22029BB  23330.88927483 -.00000154  00000-0  84531-5 0  9990,2 52137  53.2175 212.1938 0001676 116.9915 243.1248 15.08839846 95067,6917.881,95.438,540.905,538.586,0.0
52137.0,STARLINK-3733,PAYLOAD,2023-11-27 02:06:42,15.08840105,0.000169,53.2174,211.3015,117.2361,242.8803,9.9264e-05,1.292e-05,0.0,0 STARLINK-3733,1 52137U 22029BB  23331.08799486  .00001292  00000-0  99264-4 0  9994,2 52137  53.2174 211.3015 0001690 117.2361 242.8803 15.08840105 95094,6917.88,95.438,540.914,538.576,0.0
52137.0,STARLINK-3733,PAYLOAD,2023-11-27 21:11:20,15.08844756,0.0001666,53.2169,207.7336,109.6626,250.4546,0.00019255,2.778e-05,0.0,0 STARLINK-3733,1 52137U 22029BB  23331.88287223  .00002778  00000-0  19255-3 0  9994,2 52137  53.2169 207.7336 0001666 109.6626 250.4546 15.08844756 95214,6917.866,95.437,540.883,538.578,0.0
52137.0,STARLINK-3733,PAYLOAD,2023-11-28 00:22:06,15.08847916,0.0001716,53.2174,207.1389,111.0286,249.089,0.00022137,3.238e-05,0.0,0 STARLINK-3733,1 52137U 22029BB  23332.01535016  .00003238  00000-0  22137-3 0  9991,2 52137  53.2174 207.1389 0001716 111.0286 249.0890 15.08847916 95236,6917.856,95.437,540.908,538.534,0.0
52137.0,STARLINK-3733,PAYLOAD,2023-11-28 19:26:44,15.0884123,0.0002092,53.2176,203.5785,131.8827,228.2344,9.5079e-06,-1.37e-06,0.0,0 STARLINK-3733,1 52137U 22029BB  23332.81023371 -.00000137  00000-0  95079-5 0  9998,2 52137  53.2176 203.5785 0002092 131.8827 228.2344 15.08841230 95356,6917.877,95.437,541.189,538.294,0.0
52137.0,STARLINK-3733,PAYLOAD,2023-11-28 21:02:07,15.08842068,0.0001738,53.2177,203.2817,122.1597,237.9564,1.0908e-05,-1.14e-06,0.0,0 STARLINK-3733,1 52137U 22029BB  23332.87647311 -.00000114  00000-0  10908-4 0  9992,2 52137  53.2177 203.2817 0001738 122.1597 237.9564 15.08842068 95365,6917.874,95.437,540.941,538.537,0.0
52137.0,STARLINK-3733,PAYLOAD,2023-11-30 00:03:40,15.08850611,0.0001369,53.2159,198.2187,103.1328,256.9817,9.1868e-05,1.175e-05,0.0,0 STARLINK-3733,1 52137U 22029BB  23334.00254663  .00001175  00000-0  91868-4 0  9994,2 52137  53.2159 198.2187 0001369 103.1328 256.9817 15.08850611 95533,6917.848,95.437,540.66,538.766,0.0
52137.0,STARLINK-3733,PAYLOAD,2023-11-30 19:08:18,15.08839754,0.0001767,53.2162,194.6511,89.6891,270.4304,7.2132e-05,8.6e-06,0.0,0 STARLINK-3733,1 52137U 22029BB  23334.79743515  .00000860  00000-0  72132-4 0  9992,2 52137  53.2162 194.6511 0001767  89.6891 270.4304 15.08839754 95653,6917.881,95.438,540.969,538.524,0.0
